NORAD_CAT_ID,OBJECT_NAME,OBJECT_TYPE,EPOCH,MEAN_MOTION,ECCENTRICITY,INCLINATION,RA_OF_ASC_NODE,ARG_OF_PERICENTER,MEAN_ANOMALY,BSTAR,MEAN_MOTION_DOT,MEAN_MOTION_DDOT,TLE_LINE0,TLE_LINE1,TLE_LINE2,SEMIMAJOR_AXIS,PERIOD,APOGEE,PERIGEE,DECAYED
52332.0,STARLINK-3831,PAYLOAD,2024-04-14 07:56:46,15.08839278,0.0001382,53.2171,86.2257,89.8126,270.3025,3.8912e-05,3.31e-06,0.0,0 STARLINK-3831,1 52332U 22045B   24105.33109651  .00000331  00000-0  38912-4 0  9992,2 52332  53.2171  86.2257 0001382  89.8126 270.3025 15.08839278110815,6917.883,95.438,540.704,538.792,0.0
52332.0,STARLINK-3831,PAYLOAD,2024-04-15 04:36:47,15.08844934,0.0001464,53.2173,82.3609,82.1781,277.9378,0.00011653,1.567e-05,0.0,0 STARLINK-3831,1 52332U 22045B   24106.19221183  .00001567  00000-0  11653-3 0  9996,2 52332  53.2173  82.3609 0001464  82.1781 277.9378 15.08844934110942,6917.865,95.437,540.743,538.718,0.0
52332.0,STARLINK-3831,PAYLOAD,2024-04-15 07:47:33,15.08848449,0.0001475,53.2177,81.7647,83.6533,276.4627,0.00014542,2.028e-05,0.0,0 STARLINK-3831,1 52332U 22045B   24106.32468878  .00002028  00000-0  14542-3 0  9998,2 52332  53.2177  81.7647 0001475  83.6533 276.4627 15.08848449110962,6917.855,95.437,540.74,538.699,0.0
52332.0,STARLINK-3831,PAYLOAD,2024-04-16 04:27:34,15.08838555,0.0001629,53.2171,77.8999,83.3779,276.7399,7.2057e-05,8.59e-06,0.0,0 STARLINK-3831,1 52332U 22045B   24107.18581580  .00000859  00000-0  72057-4 0  9995,2 52332  53.2171  77.8999 0001629  83.3779 276.7399 15.08838555111093,6917.885,95.438,540.877,538.623,0.0
52332.0,STARLINK-3831,PAYLOAD,2024-04-16 07:38:20,15.08840896,0.0001646,53.2165,77.3049,86.9707,273.1474,0.00010825,1.435e-05,0.0,0 STARLINK-3831,1 52332U 22045B   24107.31829473  .00001435  00000-0  10825-3 0  9991,2 52332  53.2165  77.3049 0001646  86.9707 273.1474 15.08840896111115,6917.878,95.437,540.881,538.604,0.0
52332.0,STARLINK-3831,PAYLOAD,2024-04-16 15:35:15,15.08855425,0.0001597,53.2168,75.8179,93.2725,266.8449,0.00031244,4.69e-05,0.0,0 STARLINK-3831,1 52332U 22045B   24107.64948708  .00004690  00000-0  31244-3 0  9994,2 52332  53.2168  75.8179 0001597  93.2725 266.8449 15.08855425111161,6917.833,95.437,540.803,538.593,0.0
52332.0,STARLINK-3831,PAYLOAD,2024-04-17 02:42:57,15.08848298,0.0001605,53.2173,73.7377,105.7977,254.3193,0.00012224,1.658e-05,0.0,0 STARLINK-3831,1 52332U 22045B   24108.11316896  .00001658  00000-0  12224-3 0  9992,2 52332  53.2173  73.7377 0001605 105.7977 254.3193 15.08848298111238,6917.855,95.437,540.83,538.61,0.0
52332.0,STARLINK-3831,PAYLOAD,2024-04-17 07:29:06,15.08852308,0.0001709,53.2172,72.844,111.8351,248.2823,0.00021436,3.126e-05,0.0,0 STARLINK-3831,1 52332U 22045B   24108.31188639  .00003126  00000-0  21436-3 0  9993,2 52332  53.2172  72.8440 0001709 111.8351 248.2823 15.08852308111269,6917.843,95.437,540.89,538.526,0.0
52332.0,STARLINK-3831,PAYLOAD,2024-04-18 00:58:22,15.08829958,0.0001317,53.218,69.5728,114.7872,245.3258,-1.3677e-05,-5.05e-06,0.0,0 STARLINK-3831,1 52332U 22045B   24109.04053762 -.00000505  00000-0 -13677-4 0  9991,2 52332  53.2180  69.5728 0001317 114.7872 245.3258 15.08829958111372,6917.911,95.438,540.687,538.865,0.0
52332.0,STARLINK-3831,PAYLOAD,2024-04-18 07:19:55,15.08826527,8.37e-05,53.2179,68.3855,88.1086,272.0002,-7.0269e-05,-1.405e-05,0.0,0 STARLINK-3831,1 52332U 22045B   24109.30550042 -.00001405  00000-0 -70269-4 0  9993,2 52332  53.2179  68.3855 0000837  88.1086 272.0002 15.08826527111413,6917.922,95.438,540.366,539.208,0.0
52332.0,STARLINK-3831,PAYLOAD,2024-04-19 03:59:56,15.08842347,0.000111,53.2175,64.5226,111.5976,248.5134,0.00046106,7.058e-05,0.0,0 STARLINK-3831,1 52332U 22045B   24110.16662344  .00007058  00000-0  46106-3 0  9998,2 52332  53.2175  64.5226 0001110 111.5976 248.5134 15.08842347111549,6917.873,95.437,540.506,538.97,0.0
52332.0,STARLINK-3831,PAYLOAD,2024-04-19 07:10:42,15.08847467,0.0001037,53.2172,63.925,112.0571,248.0532,0.00073055,0.0001136,0.0,0 STARLINK-3831,1 52332U 22045B   24110.29910315  .00011360  00000-0  73055-3 0  9990,2 52332  53.2172  63.9250 0001037 112.0571 248.0532 15.08847467111568,6917.858,95.437,540.44,539.005,0.0
52332.0,STARLINK-3831,PAYLOAD,2024-04-20 05:26:05,15.08861478,9.06e-05,53.2166,59.7614,129.3011,230.8062,0.00049822,7.655e-05,0.0,0 STARLINK-3831,1 52332U 22045B   24111.22645522  .00007655  00000-0  49822-3 0  9996,2 52332  53.2166  59.7614 0000906 129.3011 230.8062 15.08861478111703,6917.815,95.436,540.306,539.053,0.0
52332.0,STARLINK-3831,PAYLOAD,2024-04-20 19:44:34,15.08840659,0.0001167,53.2167,57.0835,123.0574,237.053,-7.0373e-05,-1.408e-05,0.0,0 STARLINK-3831,1 52332U 22045B   24111.82261855 -.00001408  00000-0 -70373-4 0  9993,2 52332  53.2167  57.0835 0001167 123.0574 237.0530 15.08840659111791,6917.878,95.438,540.551,538.936,0.0
52332.0,STARLINK-3831,PAYLOAD,2024-04-21 03:41:30,15.08811054,0.0001243,53.2173,55.594,92.717,267.3964,-0.00062839,-0.00010267,0.0,0 STARLINK-3831,1 52332U 22045B   24112.15383088 -.00010267  00000-0 -62839-3 0  9993,2 52332  53.2173  55.5940 0001243  92.7170 267.3964 15.08811054111847,6917.969,95.439,540.694,538.974,0.0
52332.0,STARLINK-3831,PAYLOAD,2024-04-21 05:16:54,15.08811473,0.0001237,53.2173,55.2963,102.6134,257.4997,-0.00055919,-9.169e-05,0.0,0 STARLINK-3831,1 52332U 22045B   24112.22007156 -.00009169  00000-0 -55919-3 0  9990,2 52332  53.2173  55.2963 0001237 102.6134 257.4997 15.08811473111855,6917.968,95.439,540.688,538.977,0.0
52332.0,STARLINK-3831,PAYLOAD,2024-04-22 03:32:17,15.08838558,0.0001423,53.2176,51.1353,100.9995,259.1158,0.00018865,2.716e-05,0.0,0 STARLINK-3831,1 52332U 22045B   24113.14742590  .00002716  00000-0  18865-3 0  9998,2 52332  53.2176  51.1353 0001423 100.9995 259.1158 15.08838558111995,6917.885,95.438,540.734,538.765,0.0
52332.0,STARLINK-3831,PAYLOAD,2024-04-22 05:07:40,15.08836094,0.0001485,53.2177,50.8401,94.1649,265.9513,0.00015865,2.238e-05,0.0,0 STARLINK-3831,1 52332U 22045B   24113.21366760  .00002238  00000-0  15865-3 0  9993,2 52332  53.2177  50.8401 0001485  94.1649 265.9513 15.08836094112000,6917.892,95.438,540.785,538.73,0.0
52332.0,STARLINK-3831,PAYLOAD,2024-04-22 19:26:10,15.08824565,0.0001728,53.2183,48.16,138.0617,222.0508,8.3473e-06,-1.55e-06,0.0,0 STARLINK-3831,1 52332U 22045B   24113.80984117 -.00000155  00000-0  83473-5 0  9999,2 52332  53.2183  48.1600 0001728 138.0617 222.0508 15.08824565112098,6917.928,95.439,540.988,538.597,0.0
52332.0,STARLINK-3831,PAYLOAD,2024-04-23 01:47:43,15.08828134,0.0001563,53.2173,46.9764,113.0454,247.0704,0.00015419,2.166e-05,0.0,0 STARLINK-3831,1 52332U 22045B   24114.07480439  .00002166  00000-0  15419-3 0  9993,2 52332  53.2173  46.9764 0001563 113.0454 247.0704 15.08828134112139,6917.917,95.438,540.863,538.7,0.0
52332.0,STARLINK-3831,PAYLOAD,2024-04-23 22:27:43,15.08850154,0.000144,53.2169,43.1102,107.0034,253.1116,0.00058459,9.031e-05,0.0,0 STARLINK-3831,1 52332U 22045B   24114.93591648  .00009031  00000-0  58459-3 0  9992,2 52332  53.2169  43.1102 0001440 107.0034 253.1116 15.08850154112266,6917.849,95.437,540.711,538.718,0.0
52332.0,STARLINK-3831,PAYLOAD,2024-04-24 04:49:15,15.0887352,0.0001703,53.2177,41.9181,123.1578,236.9578,0.0012043,0.00018948,0.0,0 STARLINK-3831,1 52332U 22045B   24115.20087001  .00018948  00000-0  12043-2 0  9991,2 52332  53.2177  41.9181 0001703 123.1578 236.9578 15.08873520112300,6917.778,95.435,540.821,538.465,0.0
52332.0,STARLINK-3831,PAYLOAD,2024-04-24 22:18:29,15.08858026,0.0002739,53.2177,38.6401,138.8631,221.2568,0.00057751,8.92e-05,0.0,0 STARLINK-3831,1 52332U 22045B   24115.92950459  .00008920  00000-0  57751-3 0  9991,2 52332  53.2177  38.6401 0002739 138.8631 221.2568 15.08858026112413,6917.825,95.436,541.585,537.795,0.0
52332.0,STARLINK-3831,PAYLOAD,2024-04-25 04:40:01,15.08854276,0.0001264,53.2188,37.4585,106.5891,253.524,0.00021904,3.201e-05,0.0,0 STARLINK-3831,1 52332U 22045B   24116.19446683  .00003201  00000-0  21904-3 0  9998,2 52332  53.2188  37.4585 0001264 106.5891 253.5240 15.08854276112459,6917.837,95.437,540.576,538.827,0.0
52332.0,STARLINK-3831,PAYLOAD,2024-04-25 22:09:16,15.08838438,0.0001257,53.2181,34.1853,100.0603,260.0531,-1.4785e-05,-5.23e-06,0.0,0 STARLINK-3831,1 52332U 22045B   24116.92311013 -.00000523  00000-0 -14785-4 0  9993,2 52332  53.2181  34.1853 0001257 100.0603 260.0531 15.08838438112566,6917.885,95.438,540.62,538.881,0.0
52332.0,STARLINK-3831,PAYLOAD,2024-04-26 01:20:02,15.08842377,0.000135,53.2184,33.5902,108.1316,251.9823,-9.1557e-05,-1.745e-05,0.0,0 STARLINK-3831,1 52332U 22045B   24117.05558988 -.00001745  00000-0 -91557-4 0  9991,2 52332  53.2184  33.5902 0001350 108.1316 251.9823 15.08842377112583,6917.873,95.437,540.672,538.804,0.0
52332.0,STARLINK-3831,PAYLOAD,2024-04-26 10:52:20,15.0886392,0.0001202,53.2199,31.8119,95.4958,264.6172,-3.8897e-06,-3.5e-06,0.0,0 STARLINK-3831,1 52332U 22045B   24117.45301430 -.00000350  00000-0 -38897-5 0  9993,2 52332  53.2199  31.8119 0001202  95.4958 264.6172 15.08863920112648,6917.807,95.436,540.504,538.841,0.0
52332.0,STARLINK-3831,PAYLOAD,2024-04-26 22:00:04,15.08836135,0.0001352,53.2189,29.725,92.4848,267.6299,7.4309e-05,8.95e-06,0.0,0 STARLINK-3831,1 52332U 22045B   24117.91671474  .00000895  00000-0  74309-4 0  9991,2 52332  53.2189  29.7250 0001352  92.4848 267.6299 15.08836135112719,6917.892,95.438,540.693,538.822,0.0
52332.0,STARLINK-3831,PAYLOAD,2024-04-27 01:10:49,15.0884193,0.0001165,53.2164,29.1358,85.797,274.3156,3.5561e-05,2.78e-06,0.0,0 STARLINK-3831,1 52332U 22045B   24118.04918878  .00000278  00000-0  35561-4 0  9990,2 52332  53.2164  29.1358 0001165  85.7970 274.3156 15.08841930112736,6917.874,95.437,540.545,538.934,0.0
52332.0,STARLINK-3831,PAYLOAD,2024-04-27 21:50:51,15.08834345,0.0001021,53.2177,25.2641,68.277,291.833,-3.2861e-06,-3.4e-06,0.0,0 STARLINK-3831,1 52332U 22045B   24118.91031612 -.00000340  00000-0 -32861-5 0  9991,2 52332  53.2177  25.2641 0001021  68.2770 291.8330 15.08834345112861,6917.898,95.438,540.469,539.056,0.0
